JILIN-1 GAOFEN 3A       
1 44312U 19032C   26204.90190014  .00012342  00000+0  38437-3 0  9996
2 44312  44.9735 154.7563 0005543 165.4680 194.6365 15.33344680393473
JILIN-1 GAOFEN 2A       
1 44777U 19075A   26204.85256447  .00014426  00000+0  36108-3 0  9993
2 44777  97.4956 289.5213 0004501 317.9145  42.1755 15.40194877370528
JILIN-1 GAOFEN 2B       
1 44836U 19086A   26204.85943493  .00005893  00000+0  26768-3 0  9994
2 44836  97.4866 276.6259 0014056 184.6852 175.4254 15.21074044366061
JILIN-1 GAOFEN 3E       
1 46457U 20065D   26204.83722949  .00072632  00000+0  64491-3 0  9993
2 46457  97.2206 258.4084 0008463  41.3974 318.7927 15.68280995325497
JILIN-1 GAOFEN 3F       
1 46458U 20065E   26204.87039110  .00063925  00000+0  65260-3 0  9999
2 46458  97.2164 255.5838 0009845  26.1296 334.0458 15.64812414325436
JILIN-1 GAOFEN 3G       
1 46459U 20065F   26204.87323604  .00140333  00000+0  78970-3 0  9995
2 46459  97.2209 263.0942 0006801 236.8055 123.2561 15.78792939325717
JILIN-1 GAOFEN 3H       
1 46460U 20065G   26204.75266692  .00105268  00000+0  74422-3 0  9993
2 46460  97.2165 259.0333 0007322 177.4861 182.6442 15.73662482325624
JILIN-1 GAOFEN 2D       
1 49256U 21086A   26204.85262316  .00003434  00000+0  20745-3 0  9994
2 49256  97.6507 327.5567 0033362  21.7525 338.5113 15.10914717266257
JILIN-1 GAOFEN 2F       
1 49338U 21097A   26204.86495088  .00003392  00000+0  22373-3 0  9994
2 49338  97.6733 330.9872 0020216 102.1326 258.2168 15.07997104261848
JILIN-1 GAOFEN 3D27     
1 52444U 22048B   26204.81891256  .00243609  00000+0  97484-3 0  9997
2 52444  97.5732 322.3684 0005862 230.9597 129.1152 15.85894648235265
JILIN-1 GAOFEN 3D28     
1 52445U 22048C   26204.84556274  .00335474  44728-4  10169-2 0  9995
2 52445  97.5648 322.7699 0005738 236.2241 123.8486 15.92058715235333
JILIN-1 GAOFEN 3D29     
1 52446U 22048D   26204.86573925  .00242687  00000+0  95982-3 0  9990
2 52446  97.5718 322.7894 0004560 218.1351 141.9597 15.86149737235299
JILIN-1 GAOFEN 3D31     
1 52448U 22048F   26204.82875014  .00543045  13183-3  10666-2 0  9999
2 52448  97.5736 324.2678 0007606 246.9685 113.0791 16.00072864235403
JILIN-1 GAOFEN 03D09    
1 53445U 22098B   26204.88417058  .00101916  00000+0  79226-3 0  9993
2 53445  97.5626 337.4516 0003689 209.8833 150.2219 15.71448465220386
JILIN-1 GAOFEN 03D43    
1 53448U 22098E   26203.94955334  .00121518  00000+0  80139-3 0  9991
2 53448  97.5612 337.6472 0003917 208.8607 151.2441 15.75257500220312
JILIN-1 GAOFEN 03D08    
1 54251U 22155A   26204.83079333  .00082818  00000+0  72956-3 0  9990
2 54251  97.6240 353.2827 0004469 201.4348 158.6726 15.68473329205552
