{"fetched_at":"2026-07-24T07:06:36.888Z","source":"https://celestrak.org/NORAD/elements/gp.php?NAME=JILIN&FORMAT=JSON","constellation":"jilin-1-gaofen","records":[{"OBJECT_NAME":"JILIN-1 GAOFEN 3A","OBJECT_ID":"2019-032C","EPOCH":"2026-07-23T21:38:44.172096","CLASSIFICATION_TYPE":"U","MEAN_MOTION":15.3334468,"ECCENTRICITY":0.0005543,"INCLINATION":44.9735,"RA_OF_ASC_NODE":154.7563,"ARG_OF_PERICENTER":165.468,"MEAN_ANOMALY":194.6365,"EPHEMERIS_TYPE":0,"NORAD_CAT_ID":44312,"ELEMENT_SET_NO":999,"REV_AT_EPOCH":39347,"BSTAR":0.00038437,"MEAN_MOTION_DOT":0.00012342,"MEAN_MOTION_DDOT":0},{"OBJECT_NAME":"JILIN-1 GAOFEN 2A","OBJECT_ID":"2019-075A","EPOCH":"2026-07-23T20:27:41.570208","CLASSIFICATION_TYPE":"U","MEAN_MOTION":15.40194877,"ECCENTRICITY":0.0004501,"INCLINATION":97.4956,"RA_OF_ASC_NODE":289.5213,"ARG_OF_PERICENTER":317.9145,"MEAN_ANOMALY":42.1755,"EPHEMERIS_TYPE":0,"NORAD_CAT_ID":44777,"ELEMENT_SET_NO":999,"REV_AT_EPOCH":37052,"BSTAR":0.00036108,"MEAN_MOTION_DOT":0.00014426,"MEAN_MOTION_DDOT":0},{"OBJECT_NAME":"JILIN-1 GAOFEN 2B","OBJECT_ID":"2019-086A","EPOCH":"2026-07-23T20:37:35.177952","CLASSIFICATION_TYPE":"U","MEAN_MOTION":15.21074044,"ECCENTRICITY":0.0014056,"INCLINATION":97.4866,"RA_OF_ASC_NODE":276.6259,"ARG_OF_PERICENTER":184.6852,"MEAN_ANOMALY":175.4254,"EPHEMERIS_TYPE":0,"NORAD_CAT_ID":44836,"ELEMENT_SET_NO":999,"REV_AT_EPOCH":36606,"BSTAR":0.00026768,"MEAN_MOTION_DOT":0.00005893,"MEAN_MOTION_DDOT":0},{"OBJECT_NAME":"JILIN-1 GAOFEN 3E","OBJECT_ID":"2020-065D","EPOCH":"2026-07-23T20:05:36.627936","CLASSIFICATION_TYPE":"U","MEAN_MOTION":15.68280995,"ECCENTRICITY":0.0008463,"INCLINATION":97.2206,"RA_OF_ASC_NODE":258.4084,"ARG_OF_PERICENTER":41.3974,"MEAN_ANOMALY":318.7927,"EPHEMERIS_TYPE":0,"NORAD_CAT_ID":46457,"ELEMENT_SET_NO":999,"REV_AT_EPOCH":32549,"BSTAR":0.00064491,"MEAN_MOTION_DOT":0.00072632,"MEAN_MOTION_DDOT":0},{"OBJECT_NAME":"JILIN-1 GAOFEN 3F","OBJECT_ID":"2020-065E","EPOCH":"2026-07-23T20:53:21.791040","CLASSIFICATION_TYPE":"U","MEAN_MOTION":15.64812414,"ECCENTRICITY":0.0009845,"INCLINATION":97.2164,"RA_OF_ASC_NODE":255.5838,"ARG_OF_PERICENTER":26.1296,"MEAN_ANOMALY":334.0458,"EPHEMERIS_TYPE":0,"NORAD_CAT_ID":46458,"ELEMENT_SET_NO":999,"REV_AT_EPOCH":32543,"BSTAR":0.0006526,"MEAN_MOTION_DOT":0.00063925,"MEAN_MOTION_DDOT":0},{"OBJECT_NAME":"JILIN-1 GAOFEN 3G","OBJECT_ID":"2020-065F","EPOCH":"2026-07-23T20:57:27.593856","CLASSIFICATION_TYPE":"U","MEAN_MOTION":15.78792939,"ECCENTRICITY":0.0006801,"INCLINATION":97.2209,"RA_OF_ASC_NODE":263.0942,"ARG_OF_PERICENTER":236.8055,"MEAN_ANOMALY":123.2561,"EPHEMERIS_TYPE":0,"NORAD_CAT_ID":46459,"ELEMENT_SET_NO":999,"REV_AT_EPOCH":32571,"BSTAR":0.0007897,"MEAN_MOTION_DOT":0.00140333,"MEAN_MOTION_DDOT":0},{"OBJECT_NAME":"JILIN-1 GAOFEN 3H","OBJECT_ID":"2020-065G","EPOCH":"2026-07-23T18:03:50.421888","CLASSIFICATION_TYPE":"U","MEAN_MOTION":15.73662482,"ECCENTRICITY":0.0007322,"INCLINATION":97.2165,"RA_OF_ASC_NODE":259.0333,"ARG_OF_PERICENTER":177.4861,"MEAN_ANOMALY":182.6442,"EPHEMERIS_TYPE":0,"NORAD_CAT_ID":46460,"ELEMENT_SET_NO":999,"REV_AT_EPOCH":32562,"BSTAR":0.00074422,"MEAN_MOTION_DOT":0.00105268,"MEAN_MOTION_DDOT":0},{"OBJECT_NAME":"JILIN-1 GAOFEN 2D","OBJECT_ID":"2021-086A","EPOCH":"2026-07-23T20:27:46.641024","CLASSIFICATION_TYPE":"U","MEAN_MOTION":15.10914717,"ECCENTRICITY":0.0033362,"INCLINATION":97.6507,"RA_OF_ASC_NODE":327.5567,"ARG_OF_PERICENTER":21.7525,"MEAN_ANOMALY":338.5113,"EPHEMERIS_TYPE":0,"NORAD_CAT_ID":49256,"ELEMENT_SET_NO":999,"REV_AT_EPOCH":26625,"BSTAR":0.00020745,"MEAN_MOTION_DOT":0.00003434,"MEAN_MOTION_DDOT":0},{"OBJECT_NAME":"JILIN-1 GAOFEN 2F","OBJECT_ID":"2021-097A","EPOCH":"2026-07-23T20:45:31.756032","CLASSIFICATION_TYPE":"U","MEAN_MOTION":15.07997104,"ECCENTRICITY":0.0020216,"INCLINATION":97.6733,"RA_OF_ASC_NODE":330.9872,"ARG_OF_PERICENTER":102.1326,"MEAN_ANOMALY":258.2168,"EPHEMERIS_TYPE":0,"NORAD_CAT_ID":49338,"ELEMENT_SET_NO":999,"REV_AT_EPOCH":26184,"BSTAR":0.00022373,"MEAN_MOTION_DOT":0.00003392,"MEAN_MOTION_DDOT":0},{"OBJECT_NAME":"JILIN-1 GAOFEN 3D27","OBJECT_ID":"2022-048B","EPOCH":"2026-07-23T19:39:14.045184","CLASSIFICATION_TYPE":"U","MEAN_MOTION":15.85894648,"ECCENTRICITY":0.0005862,"INCLINATION":97.5732,"RA_OF_ASC_NODE":322.3684,"ARG_OF_PERICENTER":230.9597,"MEAN_ANOMALY":129.1152,"EPHEMERIS_TYPE":0,"NORAD_CAT_ID":52444,"ELEMENT_SET_NO":999,"REV_AT_EPOCH":23526,"BSTAR":0.00097484,"MEAN_MOTION_DOT":0.00243609,"MEAN_MOTION_DDOT":0},{"OBJECT_NAME":"JILIN-1 GAOFEN 3D28","OBJECT_ID":"2022-048C","EPOCH":"2026-07-23T20:17:36.620736","CLASSIFICATION_TYPE":"U","MEAN_MOTION":15.92058715,"ECCENTRICITY":0.0005738,"INCLINATION":97.5648,"RA_OF_ASC_NODE":322.7699,"ARG_OF_PERICENTER":236.2241,"MEAN_ANOMALY":123.8486,"EPHEMERIS_TYPE":0,"NORAD_CAT_ID":52445,"ELEMENT_SET_NO":999,"REV_AT_EPOCH":23533,"BSTAR":0.0010169,"MEAN_MOTION_DOT":0.00335474,"MEAN_MOTION_DDOT":0.000044728},{"OBJECT_NAME":"JILIN-1 GAOFEN 3D29","OBJECT_ID":"2022-048D","EPOCH":"2026-07-23T20:46:39.871200","CLASSIFICATION_TYPE":"U","MEAN_MOTION":15.86149737,"ECCENTRICITY":0.000456,"INCLINATION":97.5718,"RA_OF_ASC_NODE":322.7894,"ARG_OF_PERICENTER":218.1351,"MEAN_ANOMALY":141.9597,"EPHEMERIS_TYPE":0,"NORAD_CAT_ID":52446,"ELEMENT_SET_NO":999,"REV_AT_EPOCH":23529,"BSTAR":0.00095982,"MEAN_MOTION_DOT":0.00242687,"MEAN_MOTION_DDOT":0},{"OBJECT_NAME":"JILIN-1 GAOFEN 3D31","OBJECT_ID":"2022-048F","EPOCH":"2026-07-23T19:53:24.012096","CLASSIFICATION_TYPE":"U","MEAN_MOTION":16.00072864,"ECCENTRICITY":0.0007606,"INCLINATION":97.5736,"RA_OF_ASC_NODE":324.2678,"ARG_OF_PERICENTER":246.9685,"MEAN_ANOMALY":113.0791,"EPHEMERIS_TYPE":0,"NORAD_CAT_ID":52448,"ELEMENT_SET_NO":999,"REV_AT_EPOCH":23540,"BSTAR":0.0010666,"MEAN_MOTION_DOT":0.00543045,"MEAN_MOTION_DDOT":0.00013183},{"OBJECT_NAME":"JILIN-1 GAOFEN 03D09","OBJECT_ID":"2022-098B","EPOCH":"2026-07-23T21:13:12.338112","CLASSIFICATION_TYPE":"U","MEAN_MOTION":15.71448465,"ECCENTRICITY":0.0003689,"INCLINATION":97.5626,"RA_OF_ASC_NODE":337.4516,"ARG_OF_PERICENTER":209.8833,"MEAN_ANOMALY":150.2219,"EPHEMERIS_TYPE":0,"NORAD_CAT_ID":53445,"ELEMENT_SET_NO":999,"REV_AT_EPOCH":22038,"BSTAR":0.00079226,"MEAN_MOTION_DOT":0.00101916,"MEAN_MOTION_DDOT":0},{"OBJECT_NAME":"JILIN-1 GAOFEN 03D43","OBJECT_ID":"2022-098E","EPOCH":"2026-07-22T22:47:21.408576","CLASSIFICATION_TYPE":"U","MEAN_MOTION":15.752575,"ECCENTRICITY":0.00039173,"INCLINATION":97.5612,"RA_OF_ASC_NODE":337.6472,"ARG_OF_PERICENTER":208.8607,"MEAN_ANOMALY":151.2441,"EPHEMERIS_TYPE":0,"NORAD_CAT_ID":53448,"ELEMENT_SET_NO":999,"REV_AT_EPOCH":22031,"BSTAR":0.0008013945,"MEAN_MOTION_DOT":0.00121518,"MEAN_MOTION_DDOT":0},{"OBJECT_NAME":"JILIN-1 GAOFEN 03D08","OBJECT_ID":"2022-155A","EPOCH":"2026-07-23T19:56:20.543712","CLASSIFICATION_TYPE":"U","MEAN_MOTION":15.68473329,"ECCENTRICITY":0.0004469,"INCLINATION":97.624,"RA_OF_ASC_NODE":353.2827,"ARG_OF_PERICENTER":201.4348,"MEAN_ANOMALY":158.6726,"EPHEMERIS_TYPE":0,"NORAD_CAT_ID":54251,"ELEMENT_SET_NO":999,"REV_AT_EPOCH":20555,"BSTAR":0.00072956,"MEAN_MOTION_DOT":0.00082818,"MEAN_MOTION_DDOT":0}]}
